[{"OBJECT_NAME":"STARLINK-31489","OBJECT_ID":"2024-056E","EPOCH":"2026-03-09T11:19:25.746528","MEAN_MOTION":15.27522917,"ECCENTRICITY":0.00011735,"INCLINATION":43.0027,"RA_OF_ASC_NODE":231.713,"ARG_OF_PERICENTER":273.3293,"MEAN_ANOMALY":86.7424,"EPHEMERIS_TYPE":0,"CLASSIFICATION_TYPE":"U","NORAD_CAT_ID":59300,"ELEMENT_SET_NO":999,"REV_AT_EPOCH":11112,"BSTAR":0.00030822523,"MEAN_MOTION_DOT":8.214e-5,"MEAN_MOTION_DDOT":0},{"OBJECT_NAME":"ARIANE 5 R\/B","OBJECT_ID":"2005-046C","EPOCH":"2026-03-09T09:40:56.081568","MEAN_MOTION":2.29873272,"ECCENTRICITY":0.7194622,"INCLINATION":6.7121,"RA_OF_ASC_NODE":146.2342,"ARG_OF_PERICENTER":254.1078,"MEAN_ANOMALY":22.0195,"EPHEMERIS_TYPE":0,"CLASSIFICATION_TYPE":"U","NORAD_CAT_ID":28904,"ELEMENT_SET_NO":999,"REV_AT_EPOCH":16998,"BSTAR":0.0013823778,"MEAN_MOTION_DOT":3.72e-6,"MEAN_MOTION_DDOT":0}]
